[{"OBJECT_NAME":"LOGSATS","OBJECT_ID":"2025-009CJ","EPOCH":"2026-03-09T17:25:39.487008","MEAN_MOTION":15.72310294,"ECCENTRICITY":0.00053927,"INCLINATION":97.3907,"RA_OF_ASC_NODE":158.8419,"ARG_OF_PERICENTER":263.6729,"MEAN_ANOMALY":96.392,"EPHEMERIS_TYPE":0,"CLASSIFICATION_TYPE":"U","NORAD_CAT_ID":62689,"ELEMENT_SET_NO":999,"REV_AT_EPOCH":6421,"BSTAR":0.0019540727,"MEAN_MOTION_DOT":0.00266017,"MEAN_MOTION_DDOT":0},{"OBJECT_NAME":"STARLINK-11714 [DTC]","OBJECT_ID":"2025-111M","EPOCH":"2026-03-09T14:59:32.078112","MEAN_MOTION":15.7109799,"ECCENTRICITY":0.0002495,"INCLINATION":42.9978,"RA_OF_ASC_NODE":333.8143,"ARG_OF_PERICENTER":308.6647,"MEAN_ANOMALY":51.3997,"EPHEMERIS_TYPE":0,"CLASSIFICATION_TYPE":"U","NORAD_CAT_ID":64134,"ELEMENT_SET_NO":999,"REV_AT_EPOCH":4663,"BSTAR":0.0025653,"MEAN_MOTION_DOT":0.00346549,"MEAN_MOTION_DDOT":0}]
