LOGSATS                 
1 62689U 25009CJ  26068.72615147  .00266017  00000+0  19541-2 0  9995
2 62689  97.3907 158.8419 0005393 263.6729  96.3920 15.72310294 64215
STARLINK-11714 [DTC]    
1 64134U 25111M   26068.62467683  .00346549  00000+0  25653-2 0  9995
2 64134  42.9978 333.8143 0002495 308.6647  51.3997 15.71097990 46639
